[{"OBJECT_NAME":"ICEYE-X11","OBJECT_ID":"2021-059AR","EPOCH":"2026-03-09T23:58:26.261184","MEAN_MOTION":15.74026715,"ECCENTRICITY":0.00046944,"INCLINATION":97.6457,"RA_OF_ASC_NODE":256.9655,"ARG_OF_PERICENTER":333.4383,"MEAN_ANOMALY":26.664,"EPHEMERIS_TYPE":0,"CLASSIFICATION_TYPE":"U","NORAD_CAT_ID":48918,"ELEMENT_SET_NO":999,"REV_AT_EPOCH":26228,"BSTAR":0.00071987659,"MEAN_MOTION_DOT":0.00103309,"MEAN_MOTION_DDOT":0},{"OBJECT_NAME":"STARLINK-11458 [DTC]","OBJECT_ID":"2025-031B","EPOCH":"2026-03-09T04:19:49.793088","MEAN_MOTION":15.70850736,"ECCENTRICITY":6.98e-5,"INCLINATION":42.9997,"RA_OF_ASC_NODE":4.4108,"ARG_OF_PERICENTER":264.8823,"MEAN_ANOMALY":95.1965,"EPHEMERIS_TYPE":0,"CLASSIFICATION_TYPE":"U","NORAD_CAT_ID":62982,"ELEMENT_SET_NO":999,"REV_AT_EPOCH":6266,"BSTAR":0.0019452284,"MEAN_MOTION_DOT":0.00257149,"MEAN_MOTION_DDOT":0}]
